{
  "type": "FeatureCollection",
  "features": [
    {
      "type": "Feature",
      "properties": {
        "norad_id": 67161,
        "name": "GALILEO B",
        "group": "last-30-days",
        "lat": -52.99246442725287,
        "lon": 0.02255849343992738,
        "alt_km": 22927.67745815581,
        "timestamp": "2025-12-17T23:38:05.627761+00:00",
        "meta_object_name": "GALILEO B",
        "meta_object_id": "2025-302B",
        "meta_epoch": "2025-12-17T13:37:26.133312",
        "meta_mean_motion": 1.7297556,
        "meta_eccentricity": 0.0005026,
        "meta_inclination": 54.2323,
        "meta_ra_of_asc_node": 107.2467,
        "meta_arg_of_pericenter": 244.253,
        "meta_mean_anomaly": 115.654,
        "meta_ephemeris_type": 0,
        "meta_classification_type": "U",
        "meta_norad_cat_id": 67161,
        "meta_element_set_no": 999,
        "meta_rev_at_epoch": 2,
        "meta_bstar": 0,
        "meta_mean_motion_dot": -8e-08,
        "meta_mean_motion_ddot": 0,
        "tle_line1": "1 67161U 25302B   25351.56766358 -.00000008  00000+0  00000+0 0  9992",
        "tle_line2": "2 67161  54.2323 107.2467 0005026 244.2530 115.6540  1.72975560    28"
      },
      "geometry": {
        "type": "Point",
        "coordinates": [
          0.02255849343992738,
          -52.99246442725287
        ]
      }
    },
    {
      "type": "Feature",
      "properties": {
        "norad_id": 67162,
        "name": "ARIANE 6 R/B",
        "group": "last-30-days",
        "lat": -53.06542002857442,
        "lon": 0.5405496426316021,
        "alt_km": 22925.68318579489,
        "timestamp": "2025-12-17T23:38:05.627772+00:00",
        "meta_object_name": "ARIANE 6 R/B",
        "meta_object_id": "2025-302C",
        "meta_epoch": "2025-12-17T13:37:22.154592",
        "meta_mean_motion": 1.73128064,
        "meta_eccentricity": 4.83e-05,
        "meta_inclination": 54.2338,
        "meta_ra_of_asc_node": 107.2768,
        "meta_arg_of_pericenter": 122.0904,
        "meta_mean_anomaly": 237.8731,
        "meta_ephemeris_type": 0,
        "meta_classification_type": "U",
        "meta_norad_cat_id": 67162,
        "meta_element_set_no": 999,
        "meta_rev_at_epoch": 5,
        "meta_bstar": 0,
        "meta_mean_motion_dot": -8e-08,
        "meta_mean_motion_ddot": 0,
        "tle_line1": "1 67162U 25302C   25351.56761753 -.00000008  00000+0  00000+0 0  9997",
        "tle_line2": "2 67162  54.2338 107.2768 0000483 122.0904 237.8731  1.73128064    51"
      },
      "geometry": {
        "type": "Point",
        "coordinates": [
          0.5405496426316021,
          -53.06542002857442
        ]
      }
    }
  ]
}